{"type":"FeatureCollection","features":[{"type":"Feature","properties":{"name":"Mae Ramat","province":"Tak","country":"Thailand","scope":"KM","source":"GADM 4.1"},"geometry":{"type":"MultiPolygon","coordinates":[[[[98.5338,16.8274],[98.5271,16.8258],[98.524,16.8326],[98.5175,16.8353],[98.5101,16.8354],[98.5048,16.8304],[98.4999,16.8334],[98.4941,16.8402],[98.499,16.8586],[98.5048,16.8638],[98.5095,16.8639],[98.5121,16.8545],[98.5165,16.8552],[98.5172,16.8571],[98.5136,16.8678],[98.5086,16.8735],[98.5083,16.8757],[98.5112,16.8779],[98.5201,16.8766],[98.5261,16.87],[98.534,16.8649],[98.5384,16.8581],[98.5408,16.8579],[98.5414,16.8594],[98.5356,16.8706],[98.5279,16.8799],[98.529,16.8877],[98.5366,16.8927],[98.537,16.8945],[98.5346,16.8982],[98.5146,16.8998],[98.5135,16.9025],[98.5221,16.9093],[98.5227,16.9143],[98.5201,16.9166],[98.5117,16.9147],[98.51,16.9139],[98.5089,16.9093],[98.507,16.9098],[98.5019,16.915],[98.5022,16.9186],[98.5055,16.9233],[98.5047,16.9271],[98.4986,16.9262],[98.4938,16.9219],[98.4916,16.9213],[98.4908,16.9225],[98.4923,16.9323],[98.4843,16.9364],[98.4853,16.9401],[98.4916,16.9429],[98.4975,16.9482],[98.5022,16.9479],[98.5051,16.9434],[98.5073,16.9432],[98.5092,16.9458],[98.5017,16.9544],[98.4901,16.9563],[98.4905,16.9678],[98.4884,16.9705],[98.4822,16.9703],[98.4759,16.9676],[98.4704,16.9705],[98.4705,16.9732],[98.4784,16.9752],[98.4814,16.9786],[98.481,16.9805],[98.4751,16.9839],[98.4732,16.9879],[98.4732,16.9947],[98.4693,16.9949],[98.4607,16.9906],[98.4499,16.9958],[98.4498,16.9998],[98.4563,17.0087],[98.453,17.0132],[98.4562,17.0182],[98.4556,17.0203],[98.4518,17.0221],[98.4411,17.0185],[98.4314,17.0195],[98.4323,17.0222],[98.4372,17.0241],[98.4387,17.0338],[98.4315,17.0367],[98.4258,17.0361],[98.4245,17.0417],[98.4225,17.0431],[98.4169,17.0412],[98.4124,17.0513],[98.4104,17.0526],[98.4028,17.0532],[98.3995,17.0458],[98.3964,17.0462],[98.3908,17.051],[98.3931,17.055],[98.3915,17.0581],[98.3793,17.0568],[98.3751,17.0539],[98.3709,17.0542],[98.3606,17.0473],[98.3535,17.0478],[98.3458,17.0463],[98.3419,17.0476],[98.318,17.0675],[98.3113,17.0801],[98.3132,17.0864],[98.308,17.0888],[98.3031,17.0869],[98.3002,17.09],[98.3045,17.0923],[98.3092,17.0991],[98.3148,17.0935],[98.3161,17.0939],[98.3175,17.0981],[98.3285,17.1013],[98.3596,17.1213],[98.365,17.1229],[98.37,17.1302],[98.3744,17.1312],[98.3794,17.139],[98.3801,17.143],[98.3882,17.1503],[98.3885,17.1534],[98.3861,17.1563],[98.3937,17.1615],[98.4041,17.1648],[98.4102,17.1689],[98.4202,17.1689],[98.4281,17.167],[98.438,17.1731],[98.4536,17.1648],[98.467,17.1668],[98.4713,17.1689],[98.4731,17.1717],[98.471,17.1786],[98.4617,17.1867],[98.4526,17.1928],[98.4468,17.1946],[98.446,17.1976],[98.4383,17.1985],[98.4342,17.2036],[98.4184,17.21],[98.4096,17.2285],[98.4028,17.2303],[98.3865,17.2478],[98.3777,17.2537],[98.3714,17.2658],[98.3674,17.2678],[98.3625,17.2679],[98.3588,17.2717],[98.3605,17.2873],[98.3627,17.287],[98.3689,17.2946],[98.3732,17.2972],[98.4008,17.3052],[98.4218,17.3075],[98.4388,17.3027],[98.4503,17.3071],[98.4581,17.3126],[98.4676,17.3094],[98.4763,17.3029],[98.4875,17.3],[98.4831,17.2962],[98.4837,17.2907],[98.4861,17.2901],[98.4911,17.2994],[98.4941,17.2998],[98.4947,17.2929],[98.4902,17.2923],[98.4884,17.2896],[98.4921,17.2893],[98.4945,17.2868],[98.4935,17.2833],[98.4979,17.2737],[98.5036,17.2775],[98.5188,17.279],[98.5306,17.2727],[98.5466,17.2807],[98.5529,17.2796],[98.5685,17.2838],[98.5756,17.2834],[98.5789,17.2914],[98.5784,17.2978],[98.5798,17.2982],[98.5907,17.2907],[98.594,17.2791],[98.6022,17.2738],[98.6365,17.2742],[98.6511,17.2677],[98.6605,17.2608],[98.6787,17.2658],[98.6865,17.2637],[98.699,17.2648],[98.7016,17.2639],[98.7017,17.2554],[98.71,17.2536],[98.7047,17.2442],[98.7057,17.24],[98.6958,17.241],[98.6953,17.2389],[98.6983,17.2367],[98.6949,17.23],[98.6904,17.2309],[98.6873,17.2295],[98.6899,17.2216],[98.6901,17.2077],[98.6835,17.2029],[98.6835,17.1984],[98.6786,17.1927],[98.6834,17.1855],[98.6849,17.1792],[98.6979,17.1731],[98.7051,17.1674],[98.7041,17.1647],[98.7084,17.1649],[98.711,17.1625],[98.7312,17.1569],[98.7377,17.1525],[98.7412,17.1521],[98.7429,17.1497],[98.7475,17.1485],[98.7538,17.1435],[98.7605,17.1347],[98.7649,17.1356],[98.7665,17.1409],[98.7663,17.144],[98.7593,17.1543],[98.7626,17.1568],[98.7632,17.1601],[98.7708,17.1618],[98.7731,17.1673],[98.7788,17.1708],[98.781,17.1796],[98.7825,17.1806],[98.7907,17.1819],[98.7993,17.1866],[98.8079,17.1882],[98.8152,17.1787],[98.8163,17.1728],[98.8216,17.1658],[98.828,17.1643],[98.8324,17.1606],[98.8343,17.1556],[98.839,17.1548],[98.8476,17.1484],[98.847,17.1381],[98.8519,17.1213],[98.8509,17.1176],[98.8474,17.115],[98.8471,17.1028],[98.8436,17.1026],[98.8288,17.0891],[98.8141,17.0824],[98.8119,17.0796],[98.8305,17.0692],[98.8394,17.0515],[98.8568,17.0372],[98.8605,17.0303],[98.864,17.0282],[98.8671,17.0235],[98.8739,17.0213],[98.8696,17.0109],[98.8605,16.9963],[98.8504,16.9937],[98.8351,16.9738],[98.8253,16.9701],[98.8227,16.9662],[98.8067,16.9609],[98.7975,16.9521],[98.7945,16.9526],[98.7812,16.9638],[98.7751,16.9651],[98.7738,16.9687],[98.7703,16.9711],[98.7682,16.9777],[98.757,16.9838],[98.7566,16.99],[98.7552,16.991],[98.751,16.9897],[98.7483,16.9915],[98.7415,16.9887],[98.7397,16.9839],[98.7361,16.9808],[98.7295,16.9821],[98.7256,16.9812],[98.7254,16.9736],[98.7302,16.962],[98.7159,16.9621],[98.709,16.9675],[98.7083,16.9701],[98.705,16.9708],[98.7005,16.9745],[98.6899,16.969],[98.6807,16.9718],[98.6807,16.9647],[98.6827,16.9642],[98.6907,16.9548],[98.6872,16.9489],[98.6762,16.9392],[98.6738,16.9387],[98.6652,16.9448],[98.66,16.9439],[98.6531,16.9459],[98.6467,16.9446],[98.6349,16.9488],[98.6152,16.9444],[98.6117,16.9409],[98.6072,16.929],[98.6069,16.9154],[98.6015,16.9097],[98.603,16.8994],[98.6026,16.8964],[98.5985,16.8905],[98.5978,16.8787],[98.5952,16.8759],[98.582,16.8834],[98.5755,16.8739],[98.5752,16.8692],[98.5734,16.8668],[98.5752,16.8614],[98.5644,16.8476],[98.5638,16.8431],[98.5656,16.8357],[98.5624,16.836],[98.5604,16.8329],[98.552,16.8329],[98.5504,16.8368],[98.549,16.8369],[98.5482,16.8327],[98.544,16.8331],[98.5416,16.8306],[98.5338,16.8274]]]]}},{"type":"Feature","properties":{"name":"Mae Sot","province":"Tak","country":"Thailand","scope":"KM","source":"GADM 4.1"},"geometry":{"type":"MultiPolygon","coordinates":[[[[98.6059,16.5248],[98.5968,16.5332],[98.5992,16.5423],[98.5984,16.5444],[98.5912,16.5416],[98.5873,16.5431],[98.5855,16.5461],[98.5864,16.5494],[98.5853,16.5521],[98.5875,16.5554],[98.5851,16.5568],[98.5793,16.5552],[98.5779,16.5569],[98.5785,16.5638],[98.5736,16.5663],[98.5754,16.5706],[98.5782,16.5709],[98.5815,16.5641],[98.586,16.563],[98.5882,16.5643],[98.5804,16.5722],[98.5871,16.5828],[98.5869,16.5874],[98.5832,16.5916],[98.5838,16.5988],[98.5782,16.5962],[98.5773,16.5994],[98.5787,16.6034],[98.5777,16.6045],[98.5723,16.6037],[98.5715,16.6061],[98.5718,16.6103],[98.5701,16.6148],[98.5751,16.619],[98.572,16.6248],[98.5723,16.6291],[98.5713,16.6303],[98.5625,16.6287],[98.5601,16.6335],[98.5551,16.6321],[98.5478,16.6363],[98.5452,16.6366],[98.5377,16.6327],[98.5346,16.6344],[98.5318,16.6388],[98.5265,16.6401],[98.5232,16.6483],[98.519,16.648],[98.5132,16.6435],[98.5123,16.6467],[98.5163,16.6562],[98.5155,16.668],[98.519,16.674],[98.5155,16.6844],[98.5174,16.6912],[98.5121,16.6945],[98.5167,16.6988],[98.5044,16.698],[98.5008,16.6908],[98.4966,16.6895],[98.499,16.6948],[98.4973,16.7012],[98.5032,16.7094],[98.5024,16.7136],[98.4966,16.7153],[98.4915,16.7071],[98.4872,16.7142],[98.4733,16.7118],[98.4712,16.7127],[98.4726,16.7159],[98.4785,16.7164],[98.4759,16.7209],[98.4707,16.7232],[98.469,16.7266],[98.4645,16.7264],[98.464,16.7295],[98.4695,16.736],[98.4631,16.7476],[98.4641,16.7497],[98.4677,16.7507],[98.4717,16.7492],[98.476,16.7445],[98.48,16.7454],[98.4806,16.7474],[98.4774,16.7514],[98.4781,16.7607],[98.4808,16.7639],[98.4853,16.7654],[98.4905,16.7721],[98.4851,16.7787],[98.4864,16.7881],[98.4907,16.7901],[98.4933,16.7872],[98.497,16.7902],[98.502,16.7844],[98.5049,16.7847],[98.5078,16.787],[98.5081,16.7944],[98.5114,16.7965],[98.516,16.7938],[98.5164,16.79],[98.5222,16.7894],[98.5246,16.7911],[98.5274,16.7978],[98.5263,16.7988],[98.5185,16.7971],[98.5161,16.8008],[98.5179,16.8049],[98.5483,16.8117],[98.548,16.8158],[98.543,16.8191],[98.5415,16.8254],[98.537,16.829],[98.5416,16.8306],[98.544,16.8331],[98.5482,16.8327],[98.549,16.8369],[98.5504,16.8368],[98.552,16.8329],[98.5604,16.8329],[98.5624,16.836],[98.5656,16.8357],[98.5638,16.8431],[98.5644,16.8476],[98.5752,16.8614],[98.5734,16.8668],[98.5752,16.8692],[98.5755,16.8739],[98.582,16.8834],[98.5952,16.8759],[98.5978,16.8787],[98.5985,16.8905],[98.6026,16.8964],[98.603,16.8994],[98.6015,16.9097],[98.6069,16.9154],[98.6071,16.9283],[98.6131,16.943],[98.6197,16.9462],[98.6349,16.9488],[98.6467,16.9446],[98.6531,16.9459],[98.66,16.9439],[98.6652,16.9448],[98.6738,16.9387],[98.6762,16.9392],[98.6872,16.9489],[98.6907,16.9548],[98.6827,16.9642],[98.6807,16.9647],[98.6807,16.9718],[98.6899,16.969],[98.7005,16.9745],[98.705,16.9708],[98.7083,16.9701],[98.709,16.9675],[98.7159,16.9621],[98.7302,16.962],[98.7254,16.9736],[98.7256,16.9812],[98.7295,16.9821],[98.7361,16.9808],[98.7397,16.9839],[98.7415,16.9887],[98.7464,16.9913],[98.751,16.9897],[98.7552,16.991],[98.7575,16.9881],[98.757,16.9838],[98.7682,16.9777],[98.7703,16.9711],[98.7738,16.9687],[98.7751,16.9651],[98.7812,16.9638],[98.7945,16.9526],[98.7975,16.9521],[98.8007,16.9466],[98.811,16.9443],[98.8159,16.9383],[98.8157,16.9348],[98.8184,16.9295],[98.8262,16.927],[98.8325,16.9207],[98.8351,16.9135],[98.837,16.9126],[98.8356,16.9089],[98.836,16.9013],[98.841,16.8936],[98.8373,16.8885],[98.837,16.8754],[98.8279,16.8721],[98.8294,16.8638],[98.8357,16.8531],[98.8395,16.8532],[98.8449,16.8427],[98.8531,16.8412],[98.8637,16.834],[98.8685,16.8341],[98.8708,16.8279],[98.8741,16.8243],[98.8702,16.8193],[98.8727,16.8135],[98.8835,16.8033],[98.8933,16.7911],[98.9015,16.7895],[98.9071,16.7914],[98.9177,16.781],[98.9185,16.7768],[98.9248,16.7776],[98.9237,16.7703],[98.9473,16.7498],[98.9508,16.7363],[98.9512,16.7281],[98.9608,16.7111],[98.9593,16.7082],[98.9648,16.696],[98.968,16.6934],[98.9713,16.6931],[98.9769,16.6996],[98.9896,16.6968],[98.999,16.697],[99.0037,16.6907],[99.0107,16.6861],[99.0085,16.6797],[99.0105,16.6729],[99.016,16.6674],[99.0204,16.6656],[99.023,16.6611],[99.014,16.6547],[99.0134,16.6501],[99.0093,16.6444],[99.0029,16.642],[98.9881,16.6315],[98.9707,16.6255],[98.9529,16.625],[98.9519,16.6198],[98.9505,16.6199],[98.9495,16.6176],[98.9481,16.6186],[98.9466,16.6175],[98.946,16.6104],[98.9509,16.608],[98.9527,16.6042],[98.9564,16.6016],[98.9526,16.5982],[98.9519,16.5907],[98.951,16.5891],[98.9306,16.5816],[98.9181,16.5813],[98.913,16.5828],[98.9006,16.5968],[98.8948,16.5988],[98.8899,16.6037],[98.8794,16.6083],[98.8764,16.6079],[98.8767,16.61],[98.8805,16.6127],[98.8797,16.6159],[98.8759,16.6157],[98.8769,16.6186],[98.8745,16.6215],[98.8782,16.6215],[98.8793,16.6239],[98.8783,16.625],[98.8684,16.6283],[98.8583,16.6285],[98.8506,16.6241],[98.8457,16.6257],[98.842,16.6252],[98.828,16.6177],[98.8257,16.6153],[98.8277,16.6072],[98.839,16.5976],[98.8393,16.5914],[98.8364,16.5892],[98.8216,16.5861],[98.812,16.574],[98.8069,16.5745],[98.8048,16.5732],[98.8029,16.5641],[98.7866,16.5423],[98.7852,16.5341],[98.7859,16.5258],[98.7813,16.5212],[98.7726,16.5253],[98.7685,16.5356],[98.7497,16.5439],[98.7404,16.5454],[98.6902,16.5285],[98.6641,16.5265],[98.6559,16.5226],[98.6523,16.5228],[98.6424,16.5278],[98.6375,16.527],[98.6297,16.5207],[98.618,16.5248],[98.6114,16.5166],[98.6059,16.5248]]]]}},{"type":"Feature","properties":{"name":"Phop Phra","province":"Tak","country":"Thailand","scope":"KM","source":"GADM 4.1"},"geometry":{"type":"MultiPolygon","coordinates":[[[[98.7829,16.3602],[98.7829,16.3535],[98.7778,16.3494],[98.7769,16.3439],[98.7739,16.3438],[98.7721,16.346],[98.7668,16.3421],[98.7469,16.3438],[98.7442,16.3385],[98.7289,16.3297],[98.7262,16.3215],[98.7288,16.3178],[98.7278,16.3149],[98.7256,16.3118],[98.7217,16.3121],[98.7199,16.3102],[98.7211,16.3019],[98.7195,16.2949],[98.7075,16.2916],[98.7056,16.2824],[98.7067,16.2788],[98.7042,16.2765],[98.7052,16.2733],[98.7004,16.2671],[98.6946,16.2688],[98.6927,16.2735],[98.6816,16.2797],[98.68,16.2767],[98.6823,16.2738],[98.6795,16.2705],[98.6762,16.2697],[98.6747,16.2733],[98.6754,16.2797],[98.6734,16.2824],[98.6695,16.2826],[98.6681,16.2897],[98.6709,16.2943],[98.6709,16.3024],[98.6686,16.3064],[98.6707,16.3088],[98.6716,16.3148],[98.6705,16.3162],[98.6656,16.316],[98.6657,16.3199],[98.6683,16.3206],[98.6679,16.3234],[98.6696,16.3251],[98.6674,16.3432],[98.6667,16.3456],[98.6552,16.3489],[98.6539,16.3514],[98.6562,16.3557],[98.663,16.358],[98.6652,16.3637],[98.6612,16.3677],[98.6548,16.3693],[98.6588,16.3753],[98.6542,16.3867],[98.6503,16.3913],[98.651,16.3938],[98.657,16.3982],[98.6462,16.4011],[98.6413,16.4084],[98.6372,16.4103],[98.6406,16.412],[98.6416,16.4146],[98.6391,16.425],[98.6516,16.4458],[98.6576,16.4494],[98.6585,16.4558],[98.6527,16.4611],[98.6523,16.4698],[98.6481,16.4718],[98.6454,16.4715],[98.6442,16.4774],[98.6357,16.4764],[98.6292,16.4941],[98.6239,16.4961],[98.615,16.5053],[98.6114,16.5166],[98.6167,16.5239],[98.6205,16.5249],[98.6297,16.5207],[98.6396,16.5277],[98.6441,16.5274],[98.6523,16.5228],[98.6559,16.5226],[98.6641,16.5265],[98.6902,16.5285],[98.7404,16.5454],[98.7497,16.5439],[98.7685,16.5356],[98.7726,16.5253],[98.7813,16.5212],[98.7859,16.5258],[98.7852,16.5341],[98.7866,16.5423],[98.8029,16.5641],[98.8048,16.5732],[98.8069,16.5745],[98.812,16.574],[98.8216,16.5861],[98.8364,16.5892],[98.8393,16.5914],[98.839,16.5976],[98.8277,16.6072],[98.8257,16.6153],[98.828,16.6177],[98.842,16.6252],[98.8457,16.6257],[98.8506,16.6241],[98.8583,16.6285],[98.8684,16.6283],[98.8783,16.625],[98.8793,16.6239],[98.8782,16.6215],[98.8745,16.6215],[98.8769,16.6186],[98.8759,16.6157],[98.8797,16.6159],[98.8805,16.6127],[98.8767,16.61],[98.8764,16.6079],[98.8794,16.6083],[98.8899,16.6037],[98.8948,16.5988],[98.9006,16.5968],[98.913,16.5828],[98.9181,16.5813],[98.9306,16.5816],[98.951,16.5891],[98.9519,16.5907],[98.9526,16.5982],[98.9564,16.6016],[98.9527,16.6042],[98.9509,16.608],[98.946,16.6104],[98.9466,16.6175],[98.9481,16.6186],[98.9495,16.6176],[98.9505,16.6199],[98.9519,16.6198],[98.9529,16.625],[98.9707,16.6255],[98.9881,16.6315],[99.0029,16.642],[99.0093,16.6444],[99.0134,16.6501],[99.0167,16.6364],[99.0122,16.6267],[99.0119,16.619],[99.0023,16.6139],[99.0017,16.6122],[99.0033,16.6072],[99.0141,16.5946],[99.0091,16.5895],[99.0139,16.5816],[99.0218,16.5773],[99.0252,16.5703],[99.0256,16.5594],[99.0279,16.5541],[99.0255,16.5426],[99.0297,16.5385],[99.0325,16.5323],[99.022,16.5196],[99.0242,16.5151],[99.0227,16.5072],[99.027,16.4971],[99.0368,16.4882],[99.0365,16.477],[99.0379,16.4746],[99.0357,16.4728],[99.0346,16.4763],[99.0301,16.4724],[99.0289,16.474],[99.0202,16.475],[99.0212,16.4772],[99.0152,16.4812],[99.0121,16.4892],[99.0063,16.4957],[99.0018,16.4979],[98.992,16.4935],[98.9882,16.4896],[98.9878,16.4715],[98.994,16.4623],[98.9975,16.4512],[99.0073,16.4495],[99.0092,16.4461],[99.0132,16.4476],[99.0173,16.4424],[99.0182,16.4375],[99.0239,16.4269],[99.0241,16.4228],[99.0234,16.4192],[99.0207,16.4171],[99.0208,16.3965],[99.0173,16.385],[99.0228,16.3808],[99.0278,16.3813],[99.0216,16.3782],[99.0085,16.3804],[99.0093,16.374],[99.0051,16.3676],[98.9997,16.3728],[98.9939,16.3751],[98.9878,16.3712],[98.9854,16.3715],[98.9799,16.3748],[98.967,16.3763],[98.9589,16.3808],[98.9447,16.3817],[98.9345,16.3879],[98.9275,16.3869],[98.9204,16.3828],[98.9173,16.3889],[98.904,16.3976],[98.8978,16.4052],[98.8932,16.4059],[98.8906,16.4138],[98.8838,16.4213],[98.8797,16.4234],[98.8744,16.4213],[98.8699,16.422],[98.8627,16.4278],[98.8594,16.4281],[98.8563,16.4267],[98.8481,16.4181],[98.8371,16.4212],[98.8305,16.4207],[98.828,16.4116],[98.8147,16.3938],[98.8145,16.3905],[98.8175,16.3848],[98.7933,16.3695],[98.7861,16.3667],[98.7829,16.3636],[98.7829,16.3602]]]]}},{"type":"Feature","properties":{"name":"Tha Song Yang","province":"Tak","country":"Thailand","scope":"KM","source":"GADM 4.1"},"geometry":{"type":"MultiPolygon","coordinates":[[[[98.3178,17.1006],[98.3187,17.1046],[98.3223,17.1084],[98.3217,17.1101],[98.3081,17.1099],[98.3008,17.1052],[98.2996,17.1161],[98.301,17.1192],[98.298,17.1261],[98.2961,17.1252],[98.2939,17.1187],[98.2958,17.1138],[98.2906,17.1098],[98.2871,17.1092],[98.2808,17.113],[98.281,17.1199],[98.2869,17.1299],[98.2853,17.1417],[98.2897,17.1433],[98.2963,17.1401],[98.2989,17.1422],[98.2936,17.1526],[98.2834,17.1522],[98.2744,17.1486],[98.2711,17.151],[98.2687,17.156],[98.2691,17.1606],[98.2795,17.1658],[98.2806,17.1712],[98.2691,17.1747],[98.2613,17.1737],[98.26,17.177],[98.2635,17.1815],[98.2638,17.1856],[98.251,17.1799],[98.2495,17.186],[98.2519,17.1955],[98.249,17.196],[98.245,17.1941],[98.2436,17.1976],[98.2453,17.2025],[98.2449,17.208],[98.2365,17.2066],[98.2285,17.201],[98.2271,17.2024],[98.2266,17.2066],[98.2286,17.2104],[98.2332,17.2147],[98.2424,17.2182],[98.2441,17.2233],[98.2423,17.2261],[98.2368,17.2269],[98.2288,17.2189],[98.2233,17.2205],[98.2196,17.2242],[98.2114,17.2279],[98.209,17.2316],[98.2072,17.2446],[98.2049,17.2471],[98.1974,17.252],[98.1893,17.2529],[98.1842,17.256],[98.173,17.2584],[98.1669,17.2633],[98.1663,17.2727],[98.1624,17.2771],[98.1531,17.2821],[98.1471,17.2897],[98.1361,17.2913],[98.1374,17.2973],[98.1357,17.3025],[98.1346,17.3049],[98.1291,17.3074],[98.1289,17.3115],[98.1246,17.3191],[98.119,17.321],[98.113,17.3181],[98.111,17.32],[98.1063,17.3339],[98.1055,17.3441],[98.1073,17.3486],[98.1059,17.3527],[98.1091,17.3543],[98.1107,17.3608],[98.1181,17.3683],[98.1192,17.3718],[98.1163,17.3744],[98.1119,17.3734],[98.1106,17.3749],[98.1094,17.379],[98.1112,17.384],[98.101,17.3897],[98.0949,17.3897],[98.0894,17.394],[98.0837,17.3885],[98.0811,17.3896],[98.0789,17.3951],[98.0742,17.3994],[98.0725,17.4053],[98.0671,17.4083],[98.0616,17.4186],[98.0466,17.4285],[98.0473,17.4326],[98.0568,17.4343],[98.0561,17.4408],[98.0506,17.4427],[98.0368,17.4519],[98.0048,17.4909],[97.9937,17.5086],[97.9889,17.511],[97.9836,17.508],[97.9812,17.509],[97.9727,17.5071],[97.9669,17.5152],[97.9688,17.5195],[97.9624,17.5269],[97.9405,17.5301],[97.9366,17.5321],[97.9335,17.537],[97.9278,17.5363],[97.9251,17.5375],[97.9207,17.5555],[97.9126,17.561],[97.9075,17.5818],[97.9021,17.5876],[97.8984,17.5887],[97.8867,17.5982],[97.8832,17.5989],[97.8776,17.6056],[97.873,17.6071],[97.8521,17.6233],[97.841,17.6357],[97.832,17.6421],[97.8284,17.6489],[97.8224,17.6529],[97.8203,17.6599],[97.8052,17.6697],[97.8025,17.6745],[97.7948,17.6783],[97.7924,17.6904],[97.7797,17.7043],[97.7763,17.7052],[97.7688,17.7184],[97.7643,17.7229],[97.7661,17.7285],[97.7639,17.7323],[97.764,17.7425],[97.7657,17.7442],[97.7718,17.7448],[97.7759,17.7488],[97.7752,17.751],[97.7675,17.756],[97.7578,17.7706],[97.7485,17.7674],[97.7461,17.7684],[97.7448,17.7747],[97.7467,17.7806],[97.7498,17.7806],[97.7537,17.7758],[97.7596,17.7768],[97.7645,17.7747],[97.7881,17.783],[97.7963,17.775],[97.8057,17.778],[97.8112,17.7813],[97.812,17.7833],[97.8178,17.785],[97.827,17.7798],[97.8334,17.7784],[97.8495,17.7782],[97.8561,17.7826],[97.8619,17.7838],[97.864,17.789],[97.8693,17.7878],[97.8696,17.791],[97.872,17.7935],[97.877,17.7932],[97.8859,17.7994],[97.8955,17.8025],[97.9055,17.8106],[97.9075,17.8184],[97.9,17.8286],[97.9,17.8308],[97.9027,17.8352],[97.9088,17.8395],[97.9083,17.842],[97.9132,17.8532],[97.9194,17.857],[97.9373,17.8565],[97.9533,17.8587],[97.9642,17.8662],[97.965,17.8639],[97.9673,17.8635],[97.9701,17.867],[97.9742,17.8615],[97.9694,17.8576],[97.9685,17.8551],[97.9713,17.8466],[97.973,17.8454],[97.9756,17.8469],[97.9831,17.836],[97.982,17.8305],[97.979,17.8305],[97.9763,17.8234],[97.9768,17.821],[97.9789,17.8221],[97.9813,17.821],[97.9803,17.8131],[97.9899,17.8093],[97.9868,17.8073],[97.9873,17.7986],[97.9916,17.7945],[97.9945,17.784],[97.9975,17.7843],[97.9997,17.7785],[97.9969,17.7755],[97.9978,17.7733],[98.0053,17.7736],[98.0106,17.7672],[98.0115,17.7649],[98.0086,17.7602],[98.0118,17.7539],[98.0148,17.7543],[98.0122,17.7495],[98.0129,17.7466],[98.0181,17.7444],[98.0227,17.7365],[98.022,17.7344],[98.0159,17.7381],[98.0164,17.7309],[98.0222,17.7296],[98.0222,17.7238],[98.0283,17.7198],[98.0248,17.7109],[98.0263,17.7073],[98.0305,17.7095],[98.0326,17.7071],[98.0319,17.7011],[98.0393,17.694],[98.0409,17.6845],[98.044,17.6791],[98.0416,17.6735],[98.044,17.6736],[98.0463,17.6685],[98.0483,17.6681],[98.0482,17.6652],[98.0537,17.6655],[98.0589,17.6607],[98.0631,17.6543],[98.0636,17.6465],[98.0689,17.6477],[98.0735,17.6464],[98.0746,17.6441],[98.0878,17.6355],[98.0922,17.6354],[98.0993,17.6193],[98.1015,17.6207],[98.1028,17.6189],[98.1011,17.6127],[98.1071,17.61],[98.1061,17.6058],[98.1081,17.6042],[98.1049,17.5995],[98.1071,17.5931],[98.1111,17.5895],[98.1082,17.5872],[98.1093,17.5819],[98.1109,17.5798],[98.113,17.5799],[98.1138,17.5751],[98.117,17.5744],[98.1279,17.5649],[98.1272,17.5562],[98.1311,17.5527],[98.1332,17.5447],[98.1389,17.5392],[98.1429,17.5404],[98.1502,17.5392],[98.1692,17.5449],[98.1742,17.5425],[98.1802,17.5354],[98.183,17.537],[98.1886,17.5359],[98.1899,17.5379],[98.199,17.5408],[98.2026,17.5384],[98.2112,17.5383],[98.2206,17.5454],[98.2279,17.5435],[98.2367,17.5483],[98.2387,17.5476],[98.2428,17.5538],[98.2505,17.5567],[98.2499,17.5604],[98.2518,17.5652],[98.2568,17.5715],[98.263,17.5726],[98.2688,17.5773],[98.2734,17.5775],[98.2883,17.5733],[98.298,17.5739],[98.3035,17.5647],[98.2994,17.5534],[98.3016,17.5496],[98.3066,17.5478],[98.309,17.5413],[98.3098,17.5331],[98.3074,17.531],[98.315,17.5247],[98.3135,17.5166],[98.3166,17.5089],[98.3172,17.5024],[98.3214,17.4986],[98.3287,17.4861],[98.3303,17.469],[98.3255,17.4589],[98.3234,17.4469],[98.3211,17.4439],[98.3215,17.4331],[98.3287,17.4274],[98.3246,17.4214],[98.3231,17.4146],[98.3061,17.4097],[98.3045,17.4109],[98.2979,17.4103],[98.2929,17.4056],[98.3011,17.3972],[98.3066,17.3889],[98.3208,17.3771],[98.3212,17.3743],[98.318,17.3707],[98.3189,17.3648],[98.3346,17.3479],[98.3309,17.3346],[98.3329,17.3273],[98.3252,17.3229],[98.3191,17.3215],[98.3184,17.319],[98.3218,17.318],[98.3228,17.31],[98.3314,17.3005],[98.339,17.2955],[98.351,17.2922],[98.3605,17.2873],[98.3588,17.2717],[98.3625,17.2679],[98.3674,17.2678],[98.3714,17.2658],[98.3777,17.2537],[98.3865,17.2478],[98.4028,17.2303],[98.4096,17.2285],[98.4184,17.21],[98.4342,17.2036],[98.4383,17.1985],[98.446,17.1976],[98.4468,17.1946],[98.4526,17.1928],[98.4617,17.1867],[98.471,17.1786],[98.4731,17.1717],[98.4713,17.1689],[98.467,17.1668],[98.4536,17.1648],[98.438,17.1731],[98.4281,17.167],[98.4202,17.1689],[98.4102,17.1689],[98.4041,17.1648],[98.3937,17.1615],[98.3861,17.1563],[98.3885,17.1534],[98.3882,17.1503],[98.3801,17.143],[98.3794,17.139],[98.3744,17.1312],[98.37,17.1302],[98.365,17.1229],[98.3596,17.1213],[98.3285,17.1013],[98.3199,17.0977],[98.3175,17.0981],[98.3178,17.1006]]]]}},{"type":"Feature","properties":{"name":"Umphang","province":"Tak","country":"Thailand","scope":"KM","source":"GADM 4.1"},"geometry":{"type":"MultiPolygon","coordinates":[[[[98.56,15.6504],[98.5479,15.6828],[98.5735,15.7822],[98.5857,15.8156],[98.6111,15.8754],[98.6042,15.8746],[98.6015,15.8721],[98.5966,15.8747],[98.5974,15.8837],[98.5934,15.8865],[98.5897,15.893],[98.5897,15.9048],[98.5859,15.9123],[98.5853,15.9171],[98.589,15.9319],[98.5931,15.9386],[98.5928,15.9509],[98.5949,15.9581],[98.6028,15.9642],[98.6061,15.9644],[98.6093,15.9714],[98.6091,15.9769],[98.6064,15.9811],[98.6071,15.9845],[98.6053,15.99],[98.6005,15.9958],[98.5973,16.0053],[98.5925,16.012],[98.5789,16.0185],[98.5766,16.024],[98.5629,16.0312],[98.5642,16.0443],[98.5681,16.0551],[98.5761,16.0567],[98.582,16.0617],[98.5887,16.0552],[98.595,16.0553],[98.5991,16.0608],[98.6058,16.0626],[98.6092,16.0598],[98.6047,16.0522],[98.6081,16.0493],[98.6093,16.0412],[98.6129,16.041],[98.6145,16.0387],[98.6197,16.0412],[98.626,16.041],[98.6328,16.0483],[98.6277,16.0604],[98.6376,16.0613],[98.6409,16.0596],[98.6451,16.0661],[98.6617,16.0719],[98.6632,16.0757],[98.6598,16.0803],[98.6603,16.082],[98.6721,16.0891],[98.6757,16.0944],[98.6749,16.0984],[98.6699,16.103],[98.6674,16.1084],[98.6733,16.1111],[98.681,16.1096],[98.6835,16.1109],[98.683,16.1171],[98.6791,16.1242],[98.6806,16.1266],[98.6871,16.1274],[98.6874,16.1317],[98.6935,16.1301],[98.7,16.1337],[98.7086,16.134],[98.7148,16.1307],[98.719,16.1222],[98.7345,16.1209],[98.7447,16.1175],[98.7513,16.1192],[98.7587,16.1181],[98.7702,16.1191],[98.7739,16.1227],[98.7808,16.1248],[98.7851,16.1221],[98.789,16.11],[98.8049,16.1028],[98.8074,16.1036],[98.8098,16.1068],[98.8202,16.1094],[98.8263,16.1127],[98.8304,16.1161],[98.8295,16.1204],[98.8341,16.1254],[98.8385,16.1255],[98.8427,16.1281],[98.8489,16.1264],[98.8529,16.134],[98.8505,16.1377],[98.8532,16.1427],[98.8549,16.1551],[98.8516,16.1581],[98.852,16.1597],[98.8576,16.1618],[98.8582,16.1649],[98.8629,16.1675],[98.8632,16.1691],[98.8606,16.181],[98.8615,16.1855],[98.855,16.1909],[98.8565,16.193],[98.8596,16.1928],[98.8621,16.1962],[98.86,16.2046],[98.8538,16.2119],[98.854,16.2182],[98.8567,16.2198],[98.8562,16.2223],[98.8665,16.2313],[98.871,16.2324],[98.8721,16.2366],[98.8746,16.2362],[98.8763,16.2305],[98.8791,16.2285],[98.8827,16.238],[98.8888,16.2419],[98.889,16.2468],[98.8944,16.2468],[98.9039,16.2521],[98.9057,16.2594],[98.9111,16.2657],[98.9106,16.2698],[98.9081,16.2712],[98.9078,16.2738],[98.913,16.2916],[98.9124,16.298],[98.9165,16.3039],[98.9198,16.3046],[98.9247,16.303],[98.9288,16.3052],[98.9285,16.3092],[98.9262,16.3108],[98.9326,16.3272],[98.9283,16.3375],[98.9253,16.3407],[98.9266,16.3444],[98.9135,16.3428],[98.91,16.3461],[98.9134,16.3527],[98.9179,16.3563],[98.9208,16.3671],[98.9178,16.3756],[98.9192,16.3827],[98.9313,16.3882],[98.9345,16.3879],[98.9447,16.3817],[98.9589,16.3808],[98.967,16.3763],[98.9799,16.3748],[98.9854,16.3715],[98.9878,16.3712],[98.9939,16.3751],[98.9997,16.3728],[99.0051,16.3676],[99.0093,16.374],[99.0085,16.3804],[99.0216,16.3782],[99.0325,16.3835],[99.0364,16.3828],[99.0427,16.3723],[99.0424,16.357],[99.0434,16.3533],[99.0455,16.3524],[99.0434,16.3478],[99.0429,16.3383],[99.0516,16.333],[99.0534,16.3272],[99.0534,16.3196],[99.0511,16.314],[99.054,16.3078],[99.0498,16.3013],[99.0452,16.2978],[99.0427,16.2904],[99.0466,16.2801],[99.0461,16.275],[99.0491,16.2675],[99.0488,16.2617],[99.0505,16.2562],[99.0556,16.2506],[99.0558,16.2454],[99.0654,16.2389],[99.0667,16.2339],[99.0713,16.2298],[99.0755,16.2212],[99.0802,16.2172],[99.0838,16.2112],[99.0819,16.2011],[99.0744,16.1948],[99.0744,16.1883],[99.0711,16.1792],[99.0685,16.1639],[99.0592,16.1618],[99.0575,16.1631],[99.0513,16.1582],[99.0526,16.1546],[99.05,16.1432],[99.0519,16.1398],[99.0512,16.1353],[99.0534,16.1331],[99.0607,16.1313],[99.0688,16.1313],[99.0798,16.1246],[99.0823,16.1218],[99.0845,16.1135],[99.09,16.1117],[99.0945,16.1019],[99.1069,16.1006],[99.1089,16.0987],[99.1096,16.0929],[99.1073,16.0859],[99.1098,16.0816],[99.1143,16.0792],[99.1174,16.0721],[99.114,16.0635],[99.1151,16.0588],[99.1061,16.0486],[99.0877,16.0411],[99.088,16.032],[99.0845,16.0251],[99.0825,16.0054],[99.0876,15.994],[99.0878,15.9851],[99.0898,15.9794],[99.0864,15.9702],[99.0829,15.9681],[99.0817,15.9645],[99.0754,15.9588],[99.0762,15.9509],[99.0828,15.9468],[99.0874,15.9466],[99.0901,15.9426],[99.092,15.9351],[99.0957,15.9333],[99.098,15.9293],[99.097,15.9238],[99.0885,15.914],[99.0863,15.9076],[99.0881,15.9042],[99.0868,15.8988],[99.0894,15.8942],[99.0888,15.8848],[99.0863,15.8835],[99.089,15.8776],[99.0959,15.8728],[99.0973,15.8698],[99.0941,15.8594],[99.0951,15.8558],[99.0987,15.8523],[99.0954,15.8354],[99.0981,15.8293],[99.104,15.8259],[99.1036,15.8203],[99.1083,15.8174],[99.113,15.8177],[99.124,15.8132],[99.1318,15.8053],[99.1347,15.7994],[99.1366,15.7925],[99.1359,15.7864],[99.1286,15.7721],[99.1285,15.7651],[99.1322,15.7492],[99.1356,15.7431],[99.1361,15.7366],[99.1395,15.7329],[99.1385,15.7285],[99.1357,15.7283],[99.1315,15.7231],[99.1313,15.7169],[99.1285,15.7114],[99.1314,15.7051],[99.1275,15.6985],[99.1251,15.6975],[99.1273,15.695],[99.1265,15.6929],[99.1192,15.6833],[99.1174,15.6744],[99.1148,15.6728],[99.1144,15.6674],[99.1123,15.6663],[99.1168,15.6619],[99.113,15.6474],[99.118,15.6444],[99.1166,15.6346],[99.1144,15.6278],[99.11,15.6224],[99.1081,15.6151],[99.0983,15.6103],[99.096,15.5969],[99.0934,15.5942],[99.0926,15.5901],[99.0952,15.5809],[99.0856,15.5782],[99.0672,15.5667],[99.0621,15.5667],[99.0525,15.5622],[99.0494,15.5549],[99.0522,15.5439],[99.0557,15.5384],[99.0552,15.5294],[99.0573,15.5226],[99.0749,15.5094],[99.0798,15.496],[99.0752,15.4843],[99.0653,15.4727],[99.064,15.4676],[99.0661,15.4618],[99.0593,15.4584],[99.0594,15.4458],[99.0565,15.4423],[99.063,15.4353],[99.0652,15.4249],[99.0642,15.4222],[99.0681,15.4197],[99.069,15.4173],[99.0678,15.4007],[99.0697,15.3945],[99.0687,15.3925],[99.0646,15.3914],[99.0599,15.3939],[99.0557,15.3808],[99.0506,15.3807],[99.0462,15.3742],[99.0457,15.3673],[99.0477,15.3628],[99.046,15.3603],[99.0472,15.3576],[99.0443,15.3509],[99.044,15.3441],[99.0409,15.3438],[99.0344,15.3395],[99.0317,15.3352],[99.0331,15.3293],[99.0313,15.3264],[99.0334,15.3159],[99.0316,15.31],[99.0317,15.3018],[99.0327,15.2977],[99.0385,15.2965],[99.0393,15.2887],[99.0388,15.2862],[99.0295,15.2821],[99.0254,15.2778],[99.0217,15.2681],[99.0169,15.2629],[99.0203,15.2585],[99.0186,15.256],[99.0211,15.2523],[99.0198,15.2445],[99.0126,15.2428],[99.0068,15.2379],[99.0096,15.2301],[99.0075,15.228],[99.0075,15.2228],[99.0057,15.219],[99.0064,15.2131],[99.0087,15.2112],[99.0096,15.2066],[99.0059,15.2014],[99.0061,15.1975],[99.003,15.1908],[99.002,15.1855],[99.0033,15.1833],[98.9951,15.1824],[98.99,15.1857],[98.9841,15.1799],[98.9733,15.1892],[98.9714,15.1919],[98.9722,15.1964],[98.9648,15.2058],[98.9642,15.2198],[98.9573,15.2371],[98.9568,15.2457],[98.9434,15.2508],[98.9288,15.2474],[98.9249,15.2451],[98.9206,15.2483],[98.9196,15.2536],[98.916,15.2554],[98.9139,15.266],[98.8997,15.2721],[98.887,15.2742],[98.8914,15.2837],[98.8914,15.2906],[98.8716,15.3234],[98.8675,15.328],[98.8608,15.3314],[98.8418,15.3465],[98.8344,15.3444],[98.8142,15.3754],[98.8067,15.3818],[98.8031,15.3892],[98.784,15.4082],[98.7811,15.419],[98.7775,15.4239],[98.7698,15.4317],[98.7639,15.4341],[98.7636,15.4368],[98.755,15.4407],[98.7601,15.451],[98.7565,15.4559],[98.7563,15.4595],[98.7601,15.4687],[98.7584,15.4723],[98.7465,15.4812],[98.7414,15.4778],[98.7376,15.4788],[98.7282,15.4883],[98.7227,15.4895],[98.7052,15.4981],[98.7023,15.5031],[98.7051,15.5085],[98.7137,15.5035],[98.7178,15.5049],[98.7207,15.5063],[98.7191,15.5119],[98.7251,15.5163],[98.7108,15.5299],[98.699,15.5509],[98.673,15.5832],[98.6692,15.5932],[98.6627,15.5974],[98.6588,15.6078],[98.6557,15.6111],[98.6548,15.6216],[98.6496,15.6319],[98.6433,15.6366],[98.6319,15.6259],[98.6264,15.6253],[98.6209,15.6393],[98.6133,15.6431],[98.6092,15.6401],[98.5999,15.6438],[98.5907,15.6444],[98.5866,15.6562],[98.5829,15.6596],[98.5768,15.6587],[98.5719,15.6535],[98.56,15.6504]]]]}}]}
